FLOCK 4G-33             
1 62685U 25009CE  26199.14007643  .00003113  00000+0  12454-3 0  9991
2 62685  97.3939 278.6615 0004970 202.5739 157.5282 15.25817686 83529
FLOCK 4H-1              
1 66704U 25276AQ  26199.17250258  .00003230  00000+0  14935-3 0  9994
2 66704  97.4165 272.3728 0002282 166.0457 194.0842 15.20872053 35145
FLOCK 4H-2              
1 66705U 25276AR  26199.14566989  .00003444  00000+0  15779-3 0  9997
2 66705  97.4159 272.3961 0001787 151.2561 208.8773 15.21143412 35147
FLOCK 4H-3              
1 66706U 25276AS  26199.13740384  .00003510  00000+0  16488-3 0  9992
2 66706  97.4229 272.3114 0002711 232.3648 127.7342 15.20264433 35126
FLOCK 4H-4              
1 66707U 25276AT  26199.17387569  .00003319  00000+0  15700-3 0  9992
2 66707  97.4212 272.2130 0003339 238.8336 121.2572 15.20056723 35123
FLOCK 4H-5              
1 66708U 25276AU  26199.16466559  .00003532  00000+0  16275-3 0  9994
2 66708  97.4162 272.3866 0001534 135.7091 224.4267 15.20924314 35142
FLOCK 4H-6              
1 66709U 25276AV  26199.14541432  .00003313  00000+0  15419-3 0  9993
2 66709  97.4214 272.4117 0002794 192.8009 167.3155 15.20623751 35134
FLOCK 4H-7              
1 66710U 25276AW  26199.19344929  .00003272  00000+0  15329-3 0  9996
2 66710  97.4171 272.2140 0000659 263.6102  96.5058 15.20401257 35131
FLOCK 4H-8              
1 66711U 25276AX  26199.18412920  .00003221  00000+0  15051-3 0  9999
2 66711  97.4211 272.3565 0001969 251.7822 108.3199 15.20509180 35133
FLOCK 4H-9              
1 66712U 25276AY  26199.13154852  .00003516  00000+0  16258-3 0  9999
2 66712  97.4202 272.4003 0002774 201.5997 158.5122 15.20810276 35137
FLOCK 4H-10             
1 66713U 25276AZ  26199.15770158  .00003812  00000+0  17918-3 0  9998
2 66713  97.4179 272.1318 0003090 239.5049 120.5881 15.20184892 35126
FLOCK 4H-11             
1 66714U 25276BA  26199.17661076  .00006809  00000+0  28931-3 0  9995
2 66714  97.4184 272.7581 0001688 227.7812 132.3282 15.23372061 35169
FLOCK 4H-12             
1 66715U 25276BB  26199.18434170  .00003298  00000+0  15258-3 0  9997
2 66715  97.4176 272.3874 0002150 172.5771 187.5497 15.20837043 35453
FLOCK 4H-13             
1 66716U 25276BC  26199.15475191  .00003861  00000+0  17756-3 0  9994
2 66716  97.4209 272.5333 0002128 139.3339 220.8056 15.20939363 35145
FLOCK 4H-14             
1 66717U 25276BD  26199.18010755  .00003344  00000+0  15221-3 0  9990
2 66717  97.4192 272.6062 0001955 138.4618 221.6766 15.21387168 34400
FLOCK 4H-15             
1 66718U 25276BE  26199.19221450  .00003085  00000+0  14682-3 0  9990
2 66718  97.4205 272.1708 0002725 258.9278 101.1650 15.19903694 35123
