{"fetched_at":"2026-07-18T17:29:33.240Z","source":"https://celestrak.org/NORAD/elements/gp.php?GROUP=planet&FORMAT=JSON","constellation":"superdove","records":[{"OBJECT_NAME":"FLOCK 4G-33","OBJECT_ID":"2025-009CE","EPOCH":"2026-07-18T03:21:42.603552","CLASSIFICATION_TYPE":"U","MEAN_MOTION":15.25817686,"ECCENTRICITY":0.00049709,"INCLINATION":97.3939,"RA_OF_ASC_NODE":278.6615,"ARG_OF_PERICENTER":202.5739,"MEAN_ANOMALY":157.5282,"EPHEMERIS_TYPE":0,"NORAD_CAT_ID":62685,"ELEMENT_SET_NO":999,"REV_AT_EPOCH":8352,"BSTAR":0.00012454421,"MEAN_MOTION_DOT":0.00003113,"MEAN_MOTION_DDOT":0},{"OBJECT_NAME":"FLOCK 4H-1","OBJECT_ID":"2025-276AQ","EPOCH":"2026-07-18T04:08:24.222912","CLASSIFICATION_TYPE":"U","MEAN_MOTION":15.20872053,"ECCENTRICITY":0.00022824,"INCLINATION":97.4165,"RA_OF_ASC_NODE":272.3728,"ARG_OF_PERICENTER":166.0457,"MEAN_ANOMALY":194.0842,"EPHEMERIS_TYPE":0,"NORAD_CAT_ID":66704,"ELEMENT_SET_NO":999,"REV_AT_EPOCH":3514,"BSTAR":0.00014934781,"MEAN_MOTION_DOT":0.0000323,"MEAN_MOTION_DDOT":0},{"OBJECT_NAME":"FLOCK 4H-2","OBJECT_ID":"2025-276AR","EPOCH":"2026-07-18T03:29:45.878496","CLASSIFICATION_TYPE":"U","MEAN_MOTION":15.21143412,"ECCENTRICITY":0.00017879,"INCLINATION":97.4159,"RA_OF_ASC_NODE":272.3961,"ARG_OF_PERICENTER":151.2561,"MEAN_ANOMALY":208.8773,"EPHEMERIS_TYPE":0,"NORAD_CAT_ID":66705,"ELEMENT_SET_NO":999,"REV_AT_EPOCH":3514,"BSTAR":0.00015778656,"MEAN_MOTION_DOT":0.00003444,"MEAN_MOTION_DDOT":0},{"OBJECT_NAME":"FLOCK 4H-3","OBJECT_ID":"2025-276AS","EPOCH":"2026-07-18T03:17:51.691776","CLASSIFICATION_TYPE":"U","MEAN_MOTION":15.20264433,"ECCENTRICITY":0.0002711,"INCLINATION":97.4229,"RA_OF_ASC_NODE":272.3114,"ARG_OF_PERICENTER":232.3648,"MEAN_ANOMALY":127.7342,"EPHEMERIS_TYPE":0,"NORAD_CAT_ID":66706,"ELEMENT_SET_NO":999,"REV_AT_EPOCH":3512,"BSTAR":0.00016488271,"MEAN_MOTION_DOT":0.0000351,"MEAN_MOTION_DDOT":0},{"OBJECT_NAME":"FLOCK 4H-4","OBJECT_ID":"2025-276AT","EPOCH":"2026-07-18T04:10:22.859616","CLASSIFICATION_TYPE":"U","MEAN_MOTION":15.20056723,"ECCENTRICITY":0.00033391,"INCLINATION":97.4212,"RA_OF_ASC_NODE":272.213,"ARG_OF_PERICENTER":238.8336,"MEAN_ANOMALY":121.2572,"EPHEMERIS_TYPE":0,"NORAD_CAT_ID":66707,"ELEMENT_SET_NO":999,"REV_AT_EPOCH":3512,"BSTAR":0.00015700489,"MEAN_MOTION_DOT":0.00003319,"MEAN_MOTION_DDOT":0},{"OBJECT_NAME":"FLOCK 4H-5","OBJECT_ID":"2025-276AU","EPOCH":"2026-07-18T03:57:07.106976","CLASSIFICATION_TYPE":"U","MEAN_MOTION":15.20924314,"ECCENTRICITY":0.00015344,"INCLINATION":97.4162,"RA_OF_ASC_NODE":272.3866,"ARG_OF_PERICENTER":135.7091,"MEAN_ANOMALY":224.4267,"EPHEMERIS_TYPE":0,"NORAD_CAT_ID":66708,"ELEMENT_SET_NO":999,"REV_AT_EPOCH":3514,"BSTAR":0.0001627544,"MEAN_MOTION_DOT":0.00003532,"MEAN_MOTION_DDOT":0},{"OBJECT_NAME":"FLOCK 4H-6","OBJECT_ID":"2025-276AV","EPOCH":"2026-07-18T03:29:23.797248","CLASSIFICATION_TYPE":"U","MEAN_MOTION":15.20623751,"ECCENTRICITY":0.00027945,"INCLINATION":97.4214,"RA_OF_ASC_NODE":272.4117,"ARG_OF_PERICENTER":192.8009,"MEAN_ANOMALY":167.3155,"EPHEMERIS_TYPE":0,"NORAD_CAT_ID":66709,"ELEMENT_SET_NO":999,"REV_AT_EPOCH":3513,"BSTAR":0.00015418578,"MEAN_MOTION_DOT":0.00003313,"MEAN_MOTION_DDOT":0},{"OBJECT_NAME":"FLOCK 4H-7","OBJECT_ID":"2025-276AW","EPOCH":"2026-07-18T04:38:34.018656","CLASSIFICATION_TYPE":"U","MEAN_MOTION":15.20401257,"ECCENTRICITY":0.00006599,"INCLINATION":97.4171,"RA_OF_ASC_NODE":272.214,"ARG_OF_PERICENTER":263.6102,"MEAN_ANOMALY":96.5058,"EPHEMERIS_TYPE":0,"NORAD_CAT_ID":66710,"ELEMENT_SET_NO":999,"REV_AT_EPOCH":3513,"BSTAR":0.00015329308,"MEAN_MOTION_DOT":0.00003272,"MEAN_MOTION_DDOT":0},{"OBJECT_NAME":"FLOCK 4H-8","OBJECT_ID":"2025-276AX","EPOCH":"2026-07-18T04:25:08.762880","CLASSIFICATION_TYPE":"U","MEAN_MOTION":15.2050918,"ECCENTRICITY":0.00019695,"INCLINATION":97.4211,"RA_OF_ASC_NODE":272.3565,"ARG_OF_PERICENTER":251.7822,"MEAN_ANOMALY":108.3199,"EPHEMERIS_TYPE":0,"NORAD_CAT_ID":66711,"ELEMENT_SET_NO":999,"REV_AT_EPOCH":3513,"BSTAR":0.00015051355,"MEAN_MOTION_DOT":0.00003221,"MEAN_MOTION_DDOT":0},{"OBJECT_NAME":"FLOCK 4H-9","OBJECT_ID":"2025-276AY","EPOCH":"2026-07-18T03:09:25.792128","CLASSIFICATION_TYPE":"U","MEAN_MOTION":15.20810276,"ECCENTRICITY":0.00027746,"INCLINATION":97.4202,"RA_OF_ASC_NODE":272.4003,"ARG_OF_PERICENTER":201.5997,"MEAN_ANOMALY":158.5122,"EPHEMERIS_TYPE":0,"NORAD_CAT_ID":66712,"ELEMENT_SET_NO":999,"REV_AT_EPOCH":3513,"BSTAR":0.00016258221,"MEAN_MOTION_DOT":0.00003516,"MEAN_MOTION_DDOT":0},{"OBJECT_NAME":"FLOCK 4H-10","OBJECT_ID":"2025-276AZ","EPOCH":"2026-07-18T03:47:05.416512","CLASSIFICATION_TYPE":"U","MEAN_MOTION":15.20184892,"ECCENTRICITY":0.00030908,"INCLINATION":97.4179,"RA_OF_ASC_NODE":272.1318,"ARG_OF_PERICENTER":239.5049,"MEAN_ANOMALY":120.5881,"EPHEMERIS_TYPE":0,"NORAD_CAT_ID":66713,"ELEMENT_SET_NO":999,"REV_AT_EPOCH":3512,"BSTAR":0.00017917779,"MEAN_MOTION_DOT":0.00003812,"MEAN_MOTION_DDOT":0},{"OBJECT_NAME":"FLOCK 4H-11","OBJECT_ID":"2025-276BA","EPOCH":"2026-07-18T04:14:19.169664","CLASSIFICATION_TYPE":"U","MEAN_MOTION":15.23372061,"ECCENTRICITY":0.00016886,"INCLINATION":97.4184,"RA_OF_ASC_NODE":272.7581,"ARG_OF_PERICENTER":227.7812,"MEAN_ANOMALY":132.3282,"EPHEMERIS_TYPE":0,"NORAD_CAT_ID":66714,"ELEMENT_SET_NO":999,"REV_AT_EPOCH":3516,"BSTAR":0.00028930607,"MEAN_MOTION_DOT":0.00006809,"MEAN_MOTION_DDOT":0},{"OBJECT_NAME":"FLOCK 4H-12","OBJECT_ID":"2025-276BB","EPOCH":"2026-07-18T04:25:27.122880","CLASSIFICATION_TYPE":"U","MEAN_MOTION":15.20837043,"ECCENTRICITY":0.00021506,"INCLINATION":97.4176,"RA_OF_ASC_NODE":272.3874,"ARG_OF_PERICENTER":172.5771,"MEAN_ANOMALY":187.5497,"EPHEMERIS_TYPE":0,"NORAD_CAT_ID":66715,"ELEMENT_SET_NO":999,"REV_AT_EPOCH":3545,"BSTAR":0.00015258118,"MEAN_MOTION_DOT":0.00003298,"MEAN_MOTION_DDOT":0},{"OBJECT_NAME":"FLOCK 4H-13","OBJECT_ID":"2025-276BC","EPOCH":"2026-07-18T03:42:50.565024","CLASSIFICATION_TYPE":"U","MEAN_MOTION":15.20939363,"ECCENTRICITY":0.00021281,"INCLINATION":97.4209,"RA_OF_ASC_NODE":272.5333,"ARG_OF_PERICENTER":139.3339,"MEAN_ANOMALY":220.8056,"EPHEMERIS_TYPE":0,"NORAD_CAT_ID":66716,"ELEMENT_SET_NO":999,"REV_AT_EPOCH":3514,"BSTAR":0.00017756349,"MEAN_MOTION_DOT":0.00003861,"MEAN_MOTION_DDOT":0},{"OBJECT_NAME":"FLOCK 4H-14","OBJECT_ID":"2025-276BD","EPOCH":"2026-07-18T04:19:21.292320","CLASSIFICATION_TYPE":"U","MEAN_MOTION":15.21387168,"ECCENTRICITY":0.00019557,"INCLINATION":97.4192,"RA_OF_ASC_NODE":272.6062,"ARG_OF_PERICENTER":138.4618,"MEAN_ANOMALY":221.6766,"EPHEMERIS_TYPE":0,"NORAD_CAT_ID":66717,"ELEMENT_SET_NO":999,"REV_AT_EPOCH":3440,"BSTAR":0.00015221161,"MEAN_MOTION_DOT":0.00003344,"MEAN_MOTION_DDOT":0},{"OBJECT_NAME":"FLOCK 4H-15","OBJECT_ID":"2025-276BE","EPOCH":"2026-07-18T04:36:47.332800","CLASSIFICATION_TYPE":"U","MEAN_MOTION":15.19903694,"ECCENTRICITY":0.00027259,"INCLINATION":97.4205,"RA_OF_ASC_NODE":272.1708,"ARG_OF_PERICENTER":258.9278,"MEAN_ANOMALY":101.165,"EPHEMERIS_TYPE":0,"NORAD_CAT_ID":66718,"ELEMENT_SET_NO":999,"REV_AT_EPOCH":3512,"BSTAR":0.00014682283,"MEAN_MOTION_DOT":0.00003085,"MEAN_MOTION_DDOT":0}]}
